NORAD_CAT_ID,OBJECT_NAME,OBJECT_TYPE,EPOCH,MEAN_MOTION,ECCENTRICITY,INCLINATION,RA_OF_ASC_NODE,ARG_OF_PERICENTER,MEAN_ANOMALY,BSTAR,MEAN_MOTION_DOT,MEAN_MOTION_DDOT,TLE_LINE0,TLE_LINE1,TLE_LINE2,SEMIMAJOR_AXIS,PERIOD,APOGEE,PERIGEE,DECAYED
53986.0,STARLINK-5119,PAYLOAD,2024-05-18 10:47:35,15.088454,0.000126,53.2103,287.7279,59.9992,300.1125,0.00046688,7.151e-05,0.0,0 STARLINK-5119,1 53986U 22125Y   24139.44972205  .00007151  00000-0  46688-3 0  9994,2 53986  53.2103 287.7279 0001260  59.9992 300.1125 15.08845400 90007,6917.864,95.437,540.601,538.857,0.0
53986.0,STARLINK-5119,PAYLOAD,2024-05-18 13:58:21,15.08865031,7.78e-05,53.2083,287.1337,93.1751,266.933,0.001173,0.00018442,0.0,0 STARLINK-5119,1 53986U 22125Y   24139.58219547  .00018442  00000-0  11730-2 0  9996,2 53986  53.2083 287.1337 0000778  93.1751 266.9330 15.08865031 89949,6917.804,95.436,540.207,539.131,0.0
53986.0,STARLINK-5119,PAYLOAD,2024-05-18 17:09:07,15.08870636,7.6e-05,53.2124,286.5431,68.8318,291.2755,0.0013373,0.00021077,0.0,0 STARLINK-5119,1 53986U 22125Y   24139.71467541  .00021077  00000-0  13373-2 0  9993,2 53986  53.2124 286.5431 0000760  68.8318 291.2755 15.08870636 90044,6917.787,95.436,540.178,539.126,0.0
53986.0,STARLINK-5119,PAYLOAD,2024-05-19 02:41:26,15.08864474,0.0001473,53.2153,284.7571,53.9553,306.1575,0.00063174,9.787e-05,0.0,0 STARLINK-5119,1 53986U 22125Y   24140.11211211  .00009787  00000-0  63174-3 0  9999,2 53986  53.2153 284.7571 0001473  53.9553 306.1575 15.08864474 90105,6917.806,95.436,540.69,538.652,0.0
53986.0,STARLINK-5119,PAYLOAD,2024-05-19 13:49:09,15.0882412,0.0001506,53.2153,282.6781,67.9621,292.1531,-0.00063085,-0.0001031,0.0,0 STARLINK-5119,1 53986U 22125Y   24140.57580247 -.00010310  00000-0 -63085-3 0  9994,2 53986  53.2153 282.6781 0001506  67.9621 292.1531 15.08824120 90091,6917.929,95.439,540.836,538.752,0.0
53986.0,STARLINK-5119,PAYLOAD,2024-05-19 18:35:18,15.08839852,0.0001495,53.2169,281.7848,53.9953,306.1178,0.00040937,6.233e-05,0.0,0 STARLINK-5119,1 53986U 22125Y   24140.77451959  .00006233  00000-0  40937-3 0  9991,2 53986  53.2169 281.7848 0001495  53.9953 306.1178 15.08839852 90206,6917.881,95.438,540.78,538.712,0.0
53986.0,STARLINK-5119,PAYLOAD,2024-05-20 08:53:47,15.08833691,9.2e-05,53.2164,279.1077,93.0883,267.0214,0.00060708,9.385e-05,0.0,0 STARLINK-5119,1 53986U 22125Y   24141.37068599  .00009385  00000-0  60708-3 0  9991,2 53986  53.2164 279.1077 0000920  93.0883 267.0214 15.08833691 90295,6917.9,95.438,540.401,539.128,0.0
53986.0,STARLINK-5119,PAYLOAD,2024-05-20 13:39:56,15.08840885,0.00011,53.2159,278.2154,67.6721,292.4388,0.00076256,0.00011869,0.0,0 STARLINK-5119,1 53986U 22125Y   24141.56940525  .00011869  00000-0  76256-3 0  9995,2 53986  53.2159 278.2154 0001100  67.6721 292.4388 15.08840885 90246,6917.878,95.437,540.504,538.982,0.0
53986.0,STARLINK-5119,PAYLOAD,2024-05-20 15:15:19,15.08847362,0.000142,53.2152,277.9208,66.821,293.2931,0.00094715,0.00014821,0.0,0 STARLINK-5119,1 53986U 22125Y   24141.63564565  .00014821  00000-0  94715-3 0  9990,2 53986  53.2152 277.9208 0001420  66.8210 293.2931 15.08847362 90334,6917.858,95.437,540.705,538.741,0.0
53986.0,STARLINK-5119,PAYLOAD,2024-05-21 08:44:34,15.08836941,0.0001183,53.2169,274.6499,75.5242,284.5881,-0.00010911,-2.024e-05,0.0,0 STARLINK-5119,1 53986U 22125Y   24142.36428375 -.00002024  00000-0 -10911-3 0  9999,2 53986  53.2169 274.6499 0001183  75.5242 284.5881 15.08836941 90446,6917.89,95.438,540.573,538.936,0.0
53986.0,STARLINK-5119,PAYLOAD,2024-05-21 13:30:43,15.08845161,0.0001379,53.2162,273.7595,55.2841,304.8281,0.00025487,3.771e-05,0.0,0 STARLINK-5119,1 53986U 22125Y   24142.56300352  .00003771  00000-0  25487-3 0  9997,2 53986  53.2162 273.7595 0001379  55.2841 304.8281 15.08845161 90391,6917.865,95.437,540.684,538.776,0.0
53986.0,STARLINK-5119,PAYLOAD,2024-05-21 15:06:06,15.0884556,0.0001577,53.2159,273.4629,55.3035,304.8105,0.00058771,9.079e-05,0.0,0 STARLINK-5119,1 53986U 22125Y   24142.62924460  .00009079  00000-0  58771-3 0  9995,2 53986  53.2159 273.4629 0001577  55.3035 304.8105 15.08845560 90408,6917.863,95.437,540.819,538.637,0.0
53986.0,STARLINK-5119,PAYLOAD,2024-05-22 11:46:07,15.08847131,0.0001538,53.2166,269.5973,106.7955,253.3206,0.00053938,8.308e-05,0.0,0 STARLINK-5119,1 53986U 22125Y   24143.49036490  .00008308  00000-0  53938-3 0  9992,2 53986  53.2166 269.5973 0001538 106.7955 253.3206 15.08847131 90612,6917.859,95.437,540.788,538.66,0.0
53986.0,STARLINK-5119,PAYLOAD,2024-05-23 13:12:17,15.08840919,0.000149,53.2177,264.8406,64.6228,295.4919,0.0002603,3.857e-05,0.0,0 STARLINK-5119,1 53986U 22125Y   24144.55020815  .00003857  00000-0  26030-3 0  9991,2 53986  53.2177 264.8406 0001490  64.6228 295.4919 15.08840919 90777,6917.878,95.437,540.773,538.712,0.0
53986.0,STARLINK-5119,PAYLOAD,2024-05-24 14:38:27,15.08858271,0.0001173,53.2157,260.0705,102.7822,257.3301,0.00051722,7.957e-05,0.0,0 STARLINK-5119,1 53986U 22125Y   24145.61003938  .00007957  00000-0  51722-3 0  9997,2 53986  53.2157 260.0705 0001173 102.7822 257.3301 15.08858271 90858,6917.825,95.436,540.501,538.878,0.0
53986.0,STARLINK-5119,PAYLOAD,2024-05-24 17:49:14,15.08857651,0.0001367,53.2162,259.4818,125.5474,234.5646,0.00058011,8.961e-05,0.0,0 STARLINK-5119,1 53986U 22125Y   24145.74252450  .00008961  00000-0  58011-3 0  9990,2 53986  53.2162 259.4818 0001367 125.5474 234.5646 15.08857651 90953,6917.826,95.436,540.637,538.746,0.0
53986.0,STARLINK-5119,PAYLOAD,2024-05-25 00:10:46,15.08845366,9.9e-05,53.2156,258.2956,108.0877,252.0223,0.00014969,2.096e-05,0.0,0 STARLINK-5119,1 53986U 22125Y   24146.00748295  .00002096  00000-0  14969-3 0  9994,2 53986  53.2156 258.2956 0000990 108.0877 252.0223 15.08845366 90990,6917.864,95.437,540.414,539.044,0.0
53986.0,STARLINK-5119,PAYLOAD,2024-05-25 12:53:51,15.08837093,0.0001355,53.2169,255.921,104.3786,255.7356,-1.057e-05,-4.56e-06,0.0,0 STARLINK-5119,1 53986U 22125Y   24146.53740731 -.00000456  00000-0 -10570-4 0  9994,2 53986  53.2169 255.9210 0001355 104.3786 255.7356 15.08837093 91070,6917.889,95.438,540.692,538.817,0.0
53986.0,STARLINK-5119,PAYLOAD,2024-05-25 14:29:14,15.08849953,0.0001933,53.2168,255.6296,137.2674,222.8468,1.9605e-05,2.4e-07,0.0,0 STARLINK-5119,1 53986U 22125Y   24146.60364022  .00000024  00000-0  19605-4 0  9994,2 53986  53.2168 255.6296 0001933 137.2674 222.8468 15.08849953 91003,6917.85,95.437,541.052,538.378,0.0
53986.0,STARLINK-5119,PAYLOAD,2024-05-26 12:44:39,15.08836207,0.0001301,53.2157,251.4524,110.4235,249.6897,-2.3848e-05,-6.67e-06,0.0,0 STARLINK-5119,1 53986U 22125Y   24147.53100878 -.00000667  00000-0 -23848-4 0  9993,2 53986  53.2157 251.4524 0001301 110.4235 249.6897 15.08836207 91140,6917.892,95.438,540.657,538.857,0.0
53986.0,STARLINK-5119,PAYLOAD,2024-05-26 15:55:25,15.08840098,0.0001569,53.2167,250.8583,122.4435,237.6709,3.0793e-05,2.02e-06,0.0,0 STARLINK-5119,1 53986U 22125Y   24147.66348765  .00000202  00000-0  30793-4 0  9996,2 53986  53.2167 250.8583 0001569 122.4435 237.6709 15.08840098 91243,6917.88,95.438,540.831,538.66,0.0
53986.0,STARLINK-5119,PAYLOAD,2024-05-27 14:10:49,15.08848694,0.0001303,53.2173,246.7001,84.0937,276.0204,0.00017502,2.499e-05,0.0,0 STARLINK-5119,1 53986U 22125Y   24148.59084597  .00002499  00000-0  17502-3 0  9991,2 53986  53.2173 246.7001 0001303  84.0937 276.0204 15.08848694 91309,6917.854,95.437,540.62,538.817,0.0
53986.0,STARLINK-5119,PAYLOAD,2024-05-27 15:46:12,15.08850026,0.000141,53.2176,246.4016,105.1426,254.9722,0.00020978,3.053e-05,0.0,0 STARLINK-5119,1 53986U 22125Y   24148.65708408  .00003053  00000-0  20978-3 0  9990,2 53986  53.2176 246.4016 0001410 105.1426 254.9722 15.08850026 91315,6917.85,95.437,540.69,538.739,0.0
53986.0,STARLINK-5119,PAYLOAD,2024-05-27 23:43:07,15.08854141,0.0001266,53.217,244.915,99.0593,261.0543,0.00024411,3.601e-05,0.0,0 STARLINK-5119,1 53986U 22125Y   24148.98828051  .00003601  00000-0  24411-3 0  9998,2 53986  53.2170 244.9150 0001266  99.0593 261.0543 15.08854141 91442,6917.837,95.437,540.578,538.826,0.0
53986.0,STARLINK-5119,PAYLOAD,2024-05-28 12:26:13,15.08841372,0.0001444,53.216,242.5352,122.7317,237.3815,5.1823e-05,5.37e-06,0.0,0 STARLINK-5119,1 53986U 22125Y   24149.51820691  .00000537  00000-0  51823-4 0  9993,2 53986  53.2160 242.5352 0001444 122.7317 237.3815 15.08841372 91524,6917.876,95.437,540.74,538.742,0.0
53986.0,STARLINK-5119,PAYLOAD,2024-05-28 14:01:36,15.08844164,0.0001232,53.2165,242.2383,99.7484,260.3647,9.9831e-05,1.301e-05,0.0,0 STARLINK-5119,1 53986U 22125Y   24149.58444800  .00001301  00000-0  99831-4 0  9995,2 53986  53.2165 242.2383 0001232  99.7484 260.3647 15.08844164 91456,6917.868,95.437,540.585,538.88,0.0
53986.0,STARLINK-5119,PAYLOAD,2024-05-29 12:17:00,15.08848277,0.0001301,53.2165,238.076,79.9858,280.1281,0.00010894,1.447e-05,0.0,0 STARLINK-5119,1 53986U 22125Y   24150.51180676  .00001447  00000-0  10894-3 0  9990,2 53986  53.2165 238.0760 0001301  79.9858 280.1281 15.08848277 91598,6917.855,95.437,540.62,538.82,0.0
53986.0,STARLINK-5119,PAYLOAD,2024-05-30 12:07:47,15.0884899,0.0001263,53.2165,233.616,84.7738,275.3398,0.00023162,3.401e-05,0.0,0 STARLINK-5119,1 53986U 22125Y   24151.50540611  .00003401  00000-0  23162-3 0  9993,2 53986  53.2165 233.6160 0001263  84.7738 275.3398 15.08848990 91824,6917.853,95.437,540.592,538.844,0.0
53986.0,STARLINK-5119,PAYLOAD,2024-05-31 05:37:01,15.08843518,0.0001456,53.2176,230.3463,96.6875,263.4283,0.0001122,1.498e-05,0.0,0 STARLINK-5119,1 53986U 22125Y   24152.23404739  .00001498  00000-0  11220-3 0  9990,2 53986  53.2176 230.3463 0001456  96.6875 263.4283 15.08843518 91938,6917.87,95.437,540.742,538.727,0.0
53986.0,STARLINK-5119,PAYLOAD,2024-05-31 11:58:34,15.08843002,0.0001426,53.2174,229.1565,99.9681,260.1472,8.4006e-05,1.049e-05,0.0,0 STARLINK-5119,1 53986U 22125Y   24152.49900676  .00001049  00000-0  84006-4 0  9994,2 53986  53.2174 229.1565 0001426  99.9681 260.1472 15.08843002 91890,6917.871,95.437,540.723,538.75,0.0
